GPS BIIR-2  (PRN 13)    
1 24876U 97035A   22075.62649278  .00000017  00000+0  00000+0 0  9997
2 24876  55.4964 159.2950 0056298  52.7456 307.8128  2.00563499180794
GPS BIIR-4  (PRN 20)    
1 26360U 00025A   22075.10536118  .00000024  00000+0  00000+0 0  9999
2 26360  53.9840  82.7218 0050652 183.1996 245.8985  2.00552243160103
GPS BIIR-6  (PRN 22)    
1 26605U 00071A   22075.31158549  .00000016  00000+0  00000+0 0  9994
2 26605  55.0785 156.3400 0132952 253.3674  98.1162  2.00564269156342
GPS BIIR-8  (PRN 16)    
1 27663U 03005A   22075.32968854  .00000036  00000+0  00000+0 0  9990
2 27663  55.5767 276.7563 0126324  40.2753 173.3737  2.00570088140147
GPS BIIR-9  (PRN 21)    
1 27704U 03010A   22075.47935418 -.00000069  00000+0  00000+0 0  9995
2 27704  54.9907  27.0710 0247199 303.1623 237.9557  2.00575932138949
GPS BIIR-11 (PRN 19)    
1 28190U 04009A   22075.73353156 -.00000056  00000+0  00000+0 0  9992
2 28190  56.0558 337.6996 0088494 116.3369 187.0223  2.00562184131787
GPS BIIR-13 (PRN 02)    
1 28474U 04045A   22075.68468807 -.00000068  00000+0  00000+0 0  9994
2 28474  55.3197  27.1669 0208468 277.7409 258.3317  2.00569450127271
GPS BIIRM-1 (PRN 17)    
1 28874U 05038A   22075.53674370 -.00000053  00000+0  00000+0 0  9993
2 28874  56.1259 335.1374 0137778 274.3942 266.8084  2.00552327120675
GPS BIIRM-2 (PRN 31)    
1 29486U 06042A   22075.64809259  .00000009  00000+0  00000+0 0  9997
2 29486  54.7283 212.9626 0103681  20.7467 160.3723  2.00559784113235
GPS BIIRM-3 (PRN 12)    
1 29601U 06052A   22075.34348776  .00000037  00000+0  00000+0 0  9997
2 29601  55.5808 275.6900 0085005  71.6899 289.2639  2.00574043112242
GPS BIIRM-4 (PRN 15)    
1 32260U 07047A   22075.15469630  .00000022  00000+0  00000+0 0  9993
2 32260  53.2872 144.4096 0137431  61.4537 299.9913  2.00553806105642
GPS BIIRM-5 (PRN 29)    
1 32384U 07062A   22075.58710799 -.00000054  00000+0  00000+0 0  9995
2 32384  56.2420 335.8846 0017525 132.7011 310.2130  2.00556621104353
GPS BIIRM-6 (PRN 07)    
1 32711U 08012A   22075.07220268  .00000006  00000+0  00000+0 0  9992
2 32711  54.4865 211.9427 0158852 229.5971 128.9661  2.00562077102586
GPS BIIRM-8 (PRN 05)    
1 35752U 09043A   22075.09202723  .00000035  00000+0  00000+0 0  9995
2 35752  55.0008  89.2856 0056792  56.3758 336.1976  2.00562474 92199
GPS BIIF-1  (PRN 25)    
1 36585U 10022A   22075.43255892  .00000037  00000+0  00000+0 0  9994
2 36585  54.8618 271.2700 0103573  56.0270 338.1085  2.00560571 86434
GPS BIIF-2  (PRN 01)    
1 37753U 11036A   22075.56086135 -.00000059  00000+0  00000+0 0  9999
2 37753  56.5657  32.3208 0113884  49.9704 161.6850  2.00564817 78114
GPS BIIF-3  (PRN 24)    
1 38833U 12053A   22075.25160294  .00000002  00000+0  00000+0 0  9991
2 38833  53.5396 207.1672 0122254  45.7462 315.2088  2.00560676 68279
GPS BIIF-4  (PRN 27)    
1 39166U 13023A   22075.11142234 -.00000049  00000+0  00000+0 0  9990
2 39166  55.7572 331.5632 0102408  36.3741 324.3680  2.00566537 64718
GPS BIIF-5  (PRN 30)    
1 39533U 14008A   22075.60333054  .00000007  00000+0  00000+0 0  9991
2 39533  53.6362 212.6487 0057299 205.7778 153.8936  2.00575463 59076
GPS BIIF-6  (PRN 06)    
1 39741U 14026A   22075.38746481 -.00000060  00000+0  00000+0 0  9999
2 39741  56.5291  31.8535 0028773 304.5504  55.1673  2.00562616 57374
GPS BIIF-7  (PRN 09)    
1 40105U 14045A   22075.47850440  .00000023  00000+0  00000+0 0  9995
2 40105  54.6699 150.5163 0019547 109.6882 250.5838  2.00571483 54912
GPS BIIF-8  (PRN 03)    
1 40294U 14068A   22075.35361924  .00000040  00000+0  00000+0 0  9999
2 40294  55.7455  91.6120 0037569  52.0485 308.3529  2.00565073 54024
GPS BIIF-9  (PRN 26)    
1 40534U 15013A   22074.98739015  .00000036  00000+0  00000+0 0  9990
2 40534  53.7644 268.5647 0068404  20.0755 340.2100  2.00558262 50652
GPS BIIF-10 (PRN 08)    
1 40730U 15033A   22075.15079371 -.00000048  00000+0  00000+0 0  9996
2 40730  55.2579 330.4349 0073531   5.5741 354.5599  2.00556935 48823
GPS BIIF-11 (PRN 10)    
1 41019U 15062A   22075.19920955  .00000040  00000+0  00000+0 0  9997
2 41019  55.7351  91.4589 0076875 218.0479 141.4676  2.00563033 46666
GPS BIIF-12 (PRN 32)    
1 41328U 16007A   22075.29570005  .00000020  00000+0  00000+0 0  9996
2 41328  54.8900 151.1728 0059263 228.5350 131.0134  2.00574680 44677
GPS BIII-1  (PRN 04)    
1 43873U 18109A   22075.58317983  .00000022  00000+0  00000+0 0  9996
2 43873  55.0703 153.5603 0017804 194.3875 269.9418  2.00567089 23918
GPS BIII-2  (PRN 18)    
1 44506U 19056A   22075.30943549 -.00000060  00000+0  00000+0 0  9998
2 44506  55.6371  32.7540 0021302 183.3183 346.4653  2.00570863 18904
GPS BIII-3  (PRN 23)    
1 45854U 20041A   22075.65855877  .00000038  00000+0  00000+0 0  9999
2 45854  55.4523  90.0083 0019849 178.0174 182.2301  2.00560122 12885
GPS BIII-4  (PRN 14)    
1 46826U 20078A   22075.36572938  .00000035  00000+0  00000+0 0  9998
2 46826  54.6303 273.8699 0015528 181.7096 299.8815  2.00566084 10347
GPS BIII-5 (PRN 11)     
1 48859U 21054A   22075.44765941 -.00000058  00000+0  00000+0 0  9994
2 48859  55.1406  34.7939 0002882 207.9491 156.0569  2.00551033  5594
